[{"OBJECT_NAME":"STARLINK-32907","OBJECT_ID":"2025-037U","EPOCH":"2026-03-09T23:27:38.313792","MEAN_MOTION":14.98328846,"ECCENTRICITY":0.00025483,"INCLINATION":70.0033,"RA_OF_ASC_NODE":353.7855,"ARG_OF_PERICENTER":260.1337,"MEAN_ANOMALY":99.9535,"EPHEMERIS_TYPE":0,"CLASSIFICATION_TYPE":"U","NORAD_CAT_ID":63095,"ELEMENT_SET_NO":999,"REV_AT_EPOCH":5859,"BSTAR":0.00026248806,"MEAN_MOTION_DOT":3.04e-5,"MEAN_MOTION_DDOT":0},{"OBJECT_NAME":"TIANPING 3B-02","OBJECT_ID":"2024-189C","EPOCH":"2026-03-09T23:37:53.455008","MEAN_MOTION":15.00973029,"ECCENTRICITY":0.00020237,"INCLINATION":97.5355,"RA_OF_ASC_NODE":92.3046,"ARG_OF_PERICENTER":72.7812,"MEAN_ANOMALY":287.3634,"EPHEMERIS_TYPE":0,"CLASSIFICATION_TYPE":"U","NORAD_CAT_ID":61616,"ELEMENT_SET_NO":999,"REV_AT_EPOCH":7556,"BSTAR":0.00030065789,"MEAN_MOTION_DOT":3.778e-5,"MEAN_MOTION_DDOT":0}]
